[{"OBJECT_NAME":"YAOGAN-30 10B","OBJECT_ID":"2021-055B","EPOCH":"2026-03-09T23:15:59.423328","MEAN_MOTION":15.02202929,"ECCENTRICITY":0.00050008,"INCLINATION":34.9962,"RA_OF_ASC_NODE":36.3507,"ARG_OF_PERICENTER":289.0618,"MEAN_ANOMALY":70.9548,"EPHEMERIS_TYPE":0,"CLASSIFICATION_TYPE":"U","NORAD_CAT_ID":48861,"ELEMENT_SET_NO":999,"REV_AT_EPOCH":25824,"BSTAR":0.00040429536,"MEAN_MOTION_DOT":5.411e-5,"MEAN_MOTION_DDOT":0},{"OBJECT_NAME":"STARLINK-5026","OBJECT_ID":"2023-094AU","EPOCH":"2026-03-09T07:13:20.190432","MEAN_MOTION":15.02539997,"ECCENTRICITY":9.758e-5,"INCLINATION":43.0071,"RA_OF_ASC_NODE":19.2457,"ARG_OF_PERICENTER":282.5382,"MEAN_ANOMALY":77.5351,"EPHEMERIS_TYPE":0,"CLASSIFICATION_TYPE":"U","NORAD_CAT_ID":57260,"ELEMENT_SET_NO":999,"REV_AT_EPOCH":14785,"BSTAR":8.3707239e-5,"MEAN_MOTION_DOT":9.27e-6,"MEAN_MOTION_DDOT":0}]
